[
  {
    "OBJECT_NAME": "2024-018A",
    "OBJECT_ID": "2024-018A",
    "EPOCH": "2024-02-04T03:58:24.162816",
    "MEAN_MOTION": 14.32745442,
    "ECCENTRICITY": 0.0458224,
    "INCLINATION": 58.6907,
    "RA_OF_ASC_NODE": 3.0012,
    "ARG_OF_PERICENTER": 170.4674,
    "MEAN_ANOMALY": 190.5429,
    "EPHEMERIS_TYPE": 0,
    "CLASSIFICATION_TYPE": "U",
    "NORAD_CAT_ID": 58849,
    "ELEMENT_SET_NO": 999,
    "REV_AT_EPOCH": 103,
    "BSTAR": 0.00017329,
    "MEAN_MOTION_DOT": 1.321e-05,
    "MEAN_MOTION_DDOT": 0
  },
  {
    "OBJECT_NAME": "2024-018B",
    "OBJECT_ID": "2024-018B",
    "EPOCH": "2024-02-04T03:53:29.512032",
    "MEAN_MOTION": 14.33431248,
    "ECCENTRICITY": 0.0455118,
    "INCLINATION": 58.6994,
    "RA_OF_ASC_NODE": 2.9899,
    "ARG_OF_PERICENTER": 170.943,
    "MEAN_ANOMALY": 190.0168,
    "EPHEMERIS_TYPE": 0,
    "CLASSIFICATION_TYPE": "U",
    "NORAD_CAT_ID": 58850,
    "ELEMENT_SET_NO": 999,
    "REV_AT_EPOCH": 102,
    "BSTAR": 0.00026196,
    "MEAN_MOTION_DOT": 2.137e-05,
    "MEAN_MOTION_DDOT": 0
  },
  {
    "OBJECT_NAME": "2024-018C",
    "OBJECT_ID": "2024-018C",
    "EPOCH": "2024-02-04T03:49:20.995392",
    "MEAN_MOTION": 14.33996718,
    "ECCENTRICITY": 0.0452383,
    "INCLINATION": 58.6878,
    "RA_OF_ASC_NODE": 2.9745,
    "ARG_OF_PERICENTER": 170.3775,
    "MEAN_ANOMALY": 190.6292,
    "EPHEMERIS_TYPE": 0,
    "CLASSIFICATION_TYPE": "U",
    "NORAD_CAT_ID": 58851,
    "ELEMENT_SET_NO": 999,
    "REV_AT_EPOCH": 103,
    "BSTAR": 0.00012656,
    "MEAN_MOTION_DOT": 9.02e-06,
    "MEAN_MOTION_DDOT": 0
  },
  {
    "OBJECT_NAME": "2024-018D",
    "OBJECT_ID": "2024-018D",
    "EPOCH": "2024-02-04T03:50:19.528800",
    "MEAN_MOTION": 14.3389268,
    "ECCENTRICITY": 0.0453164,
    "INCLINATION": 58.6776,
    "RA_OF_ASC_NODE": 2.9727,
    "ARG_OF_PERICENTER": 169.9401,
    "MEAN_ANOMALY": 191.1085,
    "EPHEMERIS_TYPE": 0,
    "CLASSIFICATION_TYPE": "U",
    "NORAD_CAT_ID": 58852,
    "ELEMENT_SET_NO": 999,
    "REV_AT_EPOCH": 103,
    "BSTAR": 0.00049956,
    "MEAN_MOTION_DOT": 4.322e-05,
    "MEAN_MOTION_DDOT": 0
  },
  {
    "OBJECT_NAME": "STARLINK-31238",
    "OBJECT_ID": "2024-019A",
    "EPOCH": "2024-02-03T22:00:00.999936",
    "MEAN_MOTION": 15.85806381,
    "ECCENTRICITY": 0.0001855,
    "INCLINATION": 43.0063,
    "RA_OF_ASC_NODE": 246.1805,
    "ARG_OF_PERICENTER": 282.1547,
    "MEAN_ANOMALY": 25.0938,
    "EPHEMERIS_TYPE": 0,
    "CLASSIFICATION_TYPE": "U",
    "NORAD_CAT_ID": 58853,
    "ELEMENT_SET_NO": 999,
    "REV_AT_EPOCH": 182,
    "BSTAR": -0.0045502,
    "MEAN_MOTION_DOT": -0.01022963,
    "MEAN_MOTION_DDOT": 0
  },
  {
    "OBJECT_NAME": "STARLINK-31158",
    "OBJECT_ID": "2024-019B",
    "EPOCH": "2024-02-03T22:00:00.999936",
    "MEAN_MOTION": 15.8590097,
    "ECCENTRICITY": 0.000184,
    "INCLINATION": 43.0061,
    "RA_OF_ASC_NODE": 246.1725,
    "ARG_OF_PERICENTER": 282.4433,
    "MEAN_ANOMALY": 27.8538,
    "EPHEMERIS_TYPE": 0,
    "CLASSIFICATION_TYPE": "U",
    "NORAD_CAT_ID": 58854,
    "ELEMENT_SET_NO": 999,
    "REV_AT_EPOCH": 193,
    "BSTAR": -0.0046553,
    "MEAN_MOTION_DOT": -0.01048279,
    "MEAN_MOTION_DDOT": 0
  },
  {
    "OBJECT_NAME": "STARLINK-31237",
    "OBJECT_ID": "2024-019C",
    "EPOCH": "2024-02-03T22:00:00.999936",
    "MEAN_MOTION": 15.85855443,
    "ECCENTRICITY": 0.0001833,
    "INCLINATION": 43.0061,
    "RA_OF_ASC_NODE": 246.1762,
    "ARG_OF_PERICENTER": 282.2027,
    "MEAN_ANOMALY": 26.6187,
    "EPHEMERIS_TYPE": 0,
    "CLASSIFICATION_TYPE": "U",
    "NORAD_CAT_ID": 58855,
    "ELEMENT_SET_NO": 999,
    "REV_AT_EPOCH": 203,
    "BSTAR": -0.004605,
    "MEAN_MOTION_DOT": -0.01036137,
    "MEAN_MOTION_DDOT": 0
  },
  {
    "OBJECT_NAME": "STARLINK-31244",
    "OBJECT_ID": "2024-019D",
    "EPOCH": "2024-02-03T22:00:00.999936",
    "MEAN_MOTION": 15.85943144,
    "ECCENTRICITY": 0.000185,
    "INCLINATION": 43.0061,
    "RA_OF_ASC_NODE": 246.169,
    "ARG_OF_PERICENTER": 283.6735,
    "MEAN_ANOMALY": 27.9692,
    "EPHEMERIS_TYPE": 0,
    "CLASSIFICATION_TYPE": "U",
    "NORAD_CAT_ID": 58856,
    "ELEMENT_SET_NO": 999,
    "REV_AT_EPOCH": 198,
    "BSTAR": -0.0047132,
    "MEAN_MOTION_DOT": -0.01061798,
    "MEAN_MOTION_DDOT": 0
  },
  {
    "OBJECT_NAME": "STARLINK-31216",
    "OBJECT_ID": "2024-019E",
    "EPOCH": "2024-02-04T06:00:02.000160",
    "MEAN_MOTION": 15.91109973,
    "ECCENTRICITY": 0.0001583,
    "INCLINATION": 43.0062,
    "RA_OF_ASC_NODE": 243.9755,
    "ARG_OF_PERICENTER": 267.0072,
    "MEAN_ANOMALY": 203.9765,
    "EPHEMERIS_TYPE": 0,
    "CLASSIFICATION_TYPE": "U",
    "NORAD_CAT_ID": 58857,
    "ELEMENT_SET_NO": 999,
    "REV_AT_EPOCH": 203,
    "BSTAR": -0.0031801,
    "MEAN_MOTION_DOT": -0.00943813,
    "MEAN_MOTION_DDOT": 0
  },
  {
    "OBJECT_NAME": "STARLINK-31226",
    "OBJECT_ID": "2024-019F",
    "EPOCH": "2024-02-03T22:00:00.999936",
    "MEAN_MOTION": 15.8603284,
    "ECCENTRICITY": 0.0001836,
    "INCLINATION": 43.0061,
    "RA_OF_ASC_NODE": 246.1613,
    "ARG_OF_PERICENTER": 281.7873,
    "MEAN_ANOMALY": 32.8689,
    "EPHEMERIS_TYPE": 0,
    "CLASSIFICATION_TYPE": "U",
    "NORAD_CAT_ID": 58858,
    "ELEMENT_SET_NO": 999,
    "REV_AT_EPOCH": 214,
    "BSTAR": -0.004805,
    "MEAN_MOTION_DOT": -0.01084308,
    "MEAN_MOTION_DDOT": 0
  },
  {
    "OBJECT_NAME": "STARLINK-31197",
    "OBJECT_ID": "2024-019G",
    "EPOCH": "2024-02-03T22:00:00.999936",
    "MEAN_MOTION": 15.86074547,
    "ECCENTRICITY": 0.0001845,
    "INCLINATION": 43.0059,
    "RA_OF_ASC_NODE": 246.158,
    "ARG_OF_PERICENTER": 282.1367,
    "MEAN_ANOMALY": 33.9222,
    "EPHEMERIS_TYPE": 0,
    "CLASSIFICATION_TYPE": "U",
    "NORAD_CAT_ID": 58859,
    "ELEMENT_SET_NO": 999,
    "REV_AT_EPOCH": 214,
    "BSTAR": -0.0048527,
    "MEAN_MOTION_DOT": -0.01095801,
    "MEAN_MOTION_DDOT": 0
  },
  {
    "OBJECT_NAME": "STARLINK-31213",
    "OBJECT_ID": "2024-019H",
    "EPOCH": "2024-02-03T22:00:00.999936",
    "MEAN_MOTION": 15.86114909,
    "ECCENTRICITY": 0.0001831,
    "INCLINATION": 43.006,
    "RA_OF_ASC_NODE": 246.1544,
    "ARG_OF_PERICENTER": 281.8914,
    "MEAN_ANOMALY": 35.54,
    "EPHEMERIS_TYPE": 0,
    "CLASSIFICATION_TYPE": "U",
    "NORAD_CAT_ID": 58860,
    "ELEMENT_SET_NO": 999,
    "REV_AT_EPOCH": 214,
    "BSTAR": -0.0048983,
    "MEAN_MOTION_DOT": -0.01106807,
    "MEAN_MOTION_DDOT": 0
  },
  {
    "OBJECT_NAME": "STARLINK-31199",
    "OBJECT_ID": "2024-019J",
    "EPOCH": "2024-02-03T22:00:00.999936",
    "MEAN_MOTION": 15.86160133,
    "ECCENTRICITY": 0.0001831,
    "INCLINATION": 43.0058,
    "RA_OF_ASC_NODE": 246.1505,
    "ARG_OF_PERICENTER": 282.1657,
    "MEAN_ANOMALY": 36.8023,
    "EPHEMERIS_TYPE": 0,
    "CLASSIFICATION_TYPE": "U",
    "NORAD_CAT_ID": 58861,
    "ELEMENT_SET_NO": 999,
    "REV_AT_EPOCH": 214,
    "BSTAR": -0.0049544,
    "MEAN_MOTION_DOT": -0.01120154,
    "MEAN_MOTION_DDOT": 0
  },
  {
    "OBJECT_NAME": "STARLINK-31200",
    "OBJECT_ID": "2024-019K",
    "EPOCH": "2024-02-03T22:00:00.999936",
    "MEAN_MOTION": 15.86202556,
    "ECCENTRICITY": 0.0001845,
    "INCLINATION": 43.0061,
    "RA_OF_ASC_NODE": 246.1469,
    "ARG_OF_PERICENTER": 282.1482,
    "MEAN_ANOMALY": 38.2751,
    "EPHEMERIS_TYPE": 0,
    "CLASSIFICATION_TYPE": "U",
    "NORAD_CAT_ID": 58862,
    "ELEMENT_SET_NO": 999,
    "REV_AT_EPOCH": 214,
    "BSTAR": -0.0050068,
    "MEAN_MOTION_DOT": -0.01132646,
    "MEAN_MOTION_DDOT": 0
  }
]