2024-018A               
1 58849U 24018A   24035.16555744  .00001321  00000+0  17329-3 0  9991
2 58849  58.6907   3.0012 0458224 170.4674 190.5429 14.32745442  1031
2024-018B               
1 58850U 24018B   24035.16214713  .00002137  00000+0  26196-3 0  9999
2 58850  58.6994   2.9899 0455118 170.9430 190.0168 14.33431248  1025
2024-018C               
1 58851U 24018C   24035.15927078  .00000902  00000+0  12656-3 0  9998
2 58851  58.6878   2.9745 0452383 170.3775 190.6292 14.33996718  1037
2024-018D               
1 58852U 24018D   24035.15994825  .00004322  00000+0  49956-3 0  9996
2 58852  58.6776   2.9727 0453164 169.9401 191.1085 14.33892680  1032
STARLINK-31238          
1 58853U 24019A   24034.91667824 -.01022963  00000+0 -45502-2 0  9993
2 58853  43.0063 246.1805 0001855 282.1547  25.0938 15.85806381  1824
STARLINK-31158          
1 58854U 24019B   24034.91667824 -.01048279  00000+0 -46553-2 0  9999
2 58854  43.0061 246.1725 0001840 282.4433  27.8538 15.85900970  1932
STARLINK-31237          
1 58855U 24019C   24034.91667824 -.01036137  00000+0 -46050-2 0  9992
2 58855  43.0061 246.1762 0001833 282.2027  26.6187 15.85855443  2036
STARLINK-31244          
1 58856U 24019D   24034.91667824 -.01061798  00000+0 -47132-2 0  9996
2 58856  43.0061 246.1690 0001850 283.6735  27.9692 15.85943144  1981
STARLINK-31216          
1 58857U 24019E   24035.25002315 -.00943813  00000+0 -31801-2 0  9995
2 58857  43.0062 243.9755 0001583 267.0072 203.9765 15.91109973  2038
STARLINK-31226          
1 58858U 24019F   24034.91667824 -.01084308  00000+0 -48050-2 0  9990
2 58858  43.0061 246.1613 0001836 281.7873  32.8689 15.86032840  2147
STARLINK-31197          
1 58859U 24019G   24034.91667824 -.01095801  00000+0 -48527-2 0  9990
2 58859  43.0059 246.1580 0001845 282.1367  33.9222 15.86074547  2146
STARLINK-31213          
1 58860U 24019H   24034.91667824 -.01106807  00000+0 -48983-2 0  9997
2 58860  43.0060 246.1544 0001831 281.8914  35.5400 15.86114909  2142
STARLINK-31199          
1 58861U 24019J   24034.91667824 -.01120154  00000+0 -49544-2 0  9993
2 58861  43.0058 246.1505 0001831 282.1657  36.8023 15.86160133  2140
STARLINK-31200          
1 58862U 24019K   24034.91667824 -.01132646  00000+0 -50068-2 0  9996
2 58862  43.0061 246.1469 0001845 282.1482  38.2751 15.86202556  2145
